JILIN-1 07              
1 43159U 18008E   25043.58689915  .00010028  00000+0  40230-3 0  9996
2 43159  97.2207  73.6144 0010466  16.4152 343.7423 15.25129771390134
JILIN-1 08              
1 43160U 18008F   25043.57904956  .00009630  00000+0  39125-3 0  9990
2 43160  97.2220  73.2561 0008127  32.7328 327.4413 15.24737259390118
LEMUR-2-URAMCHANSOL     
1 43183U 18014D   25043.49194652  .00089043  00000+0  18233-2 0  9999
2 43183  97.5586 317.9349 0006341 171.6097 188.5258 15.45751259385537
LEMUR-2-KADI            
1 43184U 18014E   25043.27084108  .00025789  00000+0  95608-3 0  9999
2 43184  97.5352 312.0174 0007071 196.3762 163.7249 15.27579672385234
S-NET D                 
1 43186U 18014G   25043.27849126  .00008688  00000+0  54186-3 0  9995
2 43186  97.5740 307.4718 0007729 268.5363  91.4981 15.09739946384666
S-NET B                 
1 43187U 18014H   25043.61391015  .00008593  00000+0  53610-3 0  9999
2 43187  97.5744 307.7688 0008470 261.4187  98.6083 15.09730204384716
S-NET A                 
1 43188U 18014J   25043.27924375  .00008553  00000+0  53343-3 0  9992
2 43188  97.5754 307.5735 0008353 263.5326  96.4952 15.09744012384664
S-NET C                 
1 43189U 18014K   25043.48348648  .00008534  00000+0  53236-3 0  9999
2 43189  97.5768 307.7694 0010001 253.9626 106.0502 15.09725139383246
PAZ                     
1 43215U 18020A   25043.57403810  .00005029  00000+0  24253-3 0  9992
2 43215  97.4445  52.9739 0001771  88.8904 271.2534 15.19148947386671
GOES 17                 
1 43226U 18022A   25043.59251323 -.00000100  00000+0  00000+0 0  9994
2 43226   0.0054 350.5043 0003246 294.9384 326.0293  1.00271774 25519
LKW-4                   
1 43236U 18025A   25043.34404164  .00021160  00000+0  66119-3 0  9999
2 43236  97.5807 185.1597 0003629 273.3566  86.7261 15.33190148384363
ZHUHAI-1 OVS-02         
1 43440U 18040B   25043.58206305  .00014775  00000+0  54290-3 0  9997
2 43440  97.0907  85.2171 0002719 126.7596 233.3894 15.27998928378222
ZHUHAI-1 OHS-02         
1 43441U 18040C   25043.63291561  .00014141  00000+0  53546-3 0  9992
2 43441  97.0977  89.2458 0012400 175.8577 184.2768 15.26946728 39592
GAOFEN-6                
1 43484U 18048A   25043.60351662  .00001561  00000+0  23044-3 0  9995
2 43484  97.8370 117.3900 0011925 321.5723  38.4637 14.76606460361147
LUOJIA-1 01             
1 43485U 18048B   25043.61341569  .00003916  00000+0  47446-3 0  9990
2 43485  97.8528 124.4379 0008474 289.6466  70.3834 14.84169778361515
PAKTES 1A               
1 43529U 18056A   25043.61929864  .00003968  00000+0  36183-3 0  9991
2 43529  98.0575 177.5722 0021988 296.2097  63.6863 14.95541438358656
PRSS 1                  
1 43530U 18056B   25043.62139299  .00001886  00000+0  25237-3 0  9994
2 43530  97.8384 118.7895 0001406 105.0162 255.1206 14.80610281355950
HAIYANG-1C              
1 43609U 18068A   25043.61266286  .00000338  00000+0  13616-3 0  9999
2 43609  98.5761 116.4789 0011272 107.6238 252.6178 14.34163572336915
SSTL S1-4               
1 43618U 18071A   25043.64880536  .00001511  00000+0  14067-3 0  9991
2 43618  97.5740 288.5009 0003058  19.5341 340.5997 14.95712296349747
HAIYANG-2B              
1 43655U 18081A   25043.59883209  .00000018  00000+0  60033-4 0  9993
2 43655  99.3368  54.6007 0001868 118.4721 241.6619 13.79307294317434
CZ-4B R/B               
1 43656U 18081B   25043.64077612  .00000375  00000+0  12990-3 0  9997
2 43656  99.4151 276.7873 0204758 235.8748 122.2861 14.31548817329253
CFOSAT                  
1 43662U 18083A   25043.60093123  .00006511  00000+0  33991-3 0  9999
2 43662  97.3681  57.4342 0002679 135.3116 224.8334 15.16247017348247
2018-083C               
1 43664U 18083C   25043.58740213  .00589882  15478-3  12170-2 0  9998
2 43664  97.2940  83.7637 0002856 130.6174 229.5353 15.99257852350384
TEN-KOH                 
1 43677U 18084G   25043.53148791  .00005046  00000+0  41727-3 0  9998
2 43677  98.0831 211.1543 0010929 297.9291  62.0824 14.99361098342691
DIWATA-2B               
1 43678U 18084H   25043.55227683  .00004222  00000+0  36942-3 0  9997
2 43678  98.0918 215.3389 0007561 322.9681  37.1017 14.97286109342865
STARS-AO                
1 43679U 18084J   25043.46689785  .00009173  00000+0  59109-3 0  9993
2 43679  98.0692 224.1658 0003209  37.3445 322.8004 15.08569917343418
AUTCUBE 2               
1 43681U 18084K   25043.46150284  .00006587  00000+0  47592-3 0  9992
2 43681  98.0766 219.9579 0009130 254.6429 105.3787 15.04400878343140
METOP-C                 
1 43689U 18087A   25043.58870208  .00000254  00000+0  13582-3 0  9998
2 43689  98.6910 105.6483 0002403 114.7229 245.4198 14.21500978325276
ES'HAIL 2               
1 43700U 18090A   25043.54690101  .00000135  00000+0  00000+0 0  9999
2 43700   0.0130  93.4104 0001317 244.8798  27.1619  1.00273758 22761
TIANPING 1B             
1 43714U 18094E   25043.59954169  .00036279  00000+0  48879-3 0  9998
2 43714  97.3434  72.3110 0008423 110.8134 249.4025 15.57714291347923
MOHAMMED VI-B           
1 43717U 18095A   25043.60611132  .00001645  42600-9  23319-3 0  9997
2 43717  97.9491 117.9572 0001469  82.3056 277.8321 14.77107461335918
HYSIS                   
1 43719U 18096A   25043.61237413  .00002081  68600-9  28392-3 0  9996
2 43719  97.8346 107.7169 0000450 252.0639 108.0524 14.78723124335077
COSMOS 2530             
1 43751U 18097A   25043.62637952  .00000030  00000+0  14589-3 0  9991
2 43751  82.5181 166.1579 0019358  26.7761 333.4314 12.42860846281471
COSMOS 2531             
1 43752U 18097B   25043.57192633  .00000013  00000+0  24772-4 0  9995
2 43752  82.5225 167.0715 0016957  45.1529 315.0925 12.42861359281487
COSMOS 2532             
1 43753U 18097C   25043.59868532  .00000020  00000+0  69596-4 0  9997
2 43753  82.5171 166.0624 0018193  47.6773 312.5845 12.42852436281454
MINXSS-2                
1 43758U 18099A   25043.46038114  .00020354  00000+0  94309-3 0  9996
2 43758  97.5196 109.4735 0013010 203.9874 156.0757 15.20044194339144
SIRION PATHFINDER-2     
1 43759U 18099B   25043.14573863  .00007744  00000+0  50875-3 0  9995
2 43759  97.4968  98.9352 0010059 180.4827 179.6393 15.07842684338607
AISTECHSAT 2            
1 43768U 18099L   25043.39111726  .00007562  00000+0  49232-3 0  9991
2 43768  97.5017  97.3820 0005540 173.3879 186.7424 15.08215231338262
FOX-1CLIFF (AO-95)      
1 43770U 18099N   25043.13516413  .00011804  00000+0  65840-3 0  9995
2 43770  97.5106 102.6855 0010397 258.0727 101.9339 15.13677033338768
2018-099Q               
1 43772U 18099Q   25043.58941585  .00025884  00000+0  10917-2 0  9995
2 43772  97.4896 108.2947 0004547 146.0196 214.1332 15.23276009339147
RANGE-A                 
1 43773U 18099R   25043.10692271  .00006563  00000+0  43967-3 0  9994
2 43773  97.4667  94.9425 0010753 230.7260 129.3015 15.07169835338510
HIBER-2                 
1 43774U 18099S   25043.63033034  .00032247  00000+0  11900-2 0  9998
2 43774  97.5073 111.0824 0006705 186.9038 173.2110 15.27686208339261
MOVE-II                 
1 43780U 18099Y   25043.45010014  .00067856  00000+0  16063-2 0  9997
2 43780  97.4839 113.6108 0004132 210.2610 149.8398 15.41536010339582
VESTA-1                 
1 43781U 18099Z   25043.60739498  .00032427  00000+0  12270-2 0  9991
2 43781  97.4827 105.0906 0003853 208.4054 151.6975 15.26869558339144
SNUSAT-2                
1 43782U 18099AA  25043.63622660  .00011509  00000+0  67940-3 0  9990
2 43782  97.4792 100.8343 0012583 193.0690 167.0216 15.11617798338812
SNUGLITE                
1 43784U 18099AC  25043.38773599  .00012099  00000+0  66978-3 0  9997
2 43784  97.4599  99.9616 0003557 184.9989 175.1208 15.13978097338883
ITASAT                  
1 43786U 18099AE  25043.59336005  .00008652  00000+0  52952-3 0  9996
2 43786  97.4752 100.6122 0013942 247.7891 112.1860 15.10370636338783
KAZSCISAT-1             
1 43787U 18099AF  25043.14197764  .00066986  00000+0  17125-2 0  9991
2 43787  97.4700 109.3354 0004008 187.9993 172.1189 15.39198479339494
EAGLET-I                
1 43790U 18099AJ  25043.12574178  .00005711  00000+0  38189-3 0  9994
2 43790  97.4945 100.4368 0011536 227.9077 132.1171 15.07293316338361
ESEO                    
1 43792U 18099AL  25043.57174574  .00002827  00000+0  22113-3 0  9996
2 43792  97.4607  95.6354 0010427 189.2749 170.8285 15.01784335338255
CSIM-FD                 
1 43793U 18099AM  25043.43657515  .00074229  00000+0  17524-2 0  9997
2 43793  97.5018 115.5692 0007417 188.6154 171.4966 15.41571140339423
THEA                    
1 43796U 18099AQ  25043.59023723  .00016699  00000+0  84289-3 0  9995
2 43796  97.5118 108.2729 0010506 204.0268 156.0476 15.17134882338031
ASTROCAST 0.1           
1 43798U 18099AS  25043.61903991  .00018819  00000+0  79851-3 0  9999
2 43798  97.5012 110.8635 0008966 161.5885 198.5678 15.23112105339330
JY1SAT (JO-97)          
1 43803U 18099AX  25043.12366585  .00015736  00000+0  80939-3 0  9998
2 43803  97.4852 103.4801 0008024 187.8485 172.2624 15.16504068338944
SUOMI-100               
1 43804U 18099AY  25043.63301400  .00014098  00000+0  76199-3 0  9993
2 43804  97.4920 103.5561 0013199 189.6828 170.4152 15.14726727338970
AL-FARABI 2             
1 43805U 18099AZ  25043.58415602  .00028715  00000+0  11457-2 0  9994
2 43805  97.4742 107.2764 0008148 170.0314 190.1087 15.25104356339293
CENTAURI-1              
1 43809U 18099BD  25043.60170790  .00007651  00000+0  48508-3 0  9991
2 43809  97.4947 101.0619 0015722 215.0883 144.9311 15.09101409338476
GLOBAL-2                
1 43812U 18099BG  25043.62190625  .00006074  00000+0  43987-3 0  9990
2 43812  97.4234  94.8690 0007056  39.8539 320.3205 15.04308722338191
BRIO                    
1 43813U 18099BH  25043.46361243  .00073659  00000+0  17280-2 0  9998
2 43813  97.5337 120.3955 0003633 165.5864 194.5487 15.41784481339332
